NORAD_CAT_ID,OBJECT_NAME,OBJECT_TYPE,EPOCH,MEAN_MOTION,ECCENTRICITY,INCLINATION,RA_OF_ASC_NODE,ARG_OF_PERICENTER,MEAN_ANOMALY,BSTAR,MEAN_MOTION_DOT,MEAN_MOTION_DDOT,TLE_LINE0,TLE_LINE1,TLE_LINE2,SEMIMAJOR_AXIS,PERIOD,APOGEE,PERIGEE,DECAYED
53409.0,STARLINK-4490,PAYLOAD,2023-04-17 10:46:42,15.08837647,0.0001373,53.2168,170.4542,87.8634,272.2515,6.1323e-06,-1.9e-06,0.0,0 STARLINK-4490,1 53409U 22097X   23107.44910877 -.00000190  00000-0  61323-5 0  9995,2 53409  53.2168 170.4542 0001373  87.8634 272.2515 15.08837647 38690,6917.888,95.438,540.702,538.803,0.0
53409.0,STARLINK-4490,PAYLOAD,2023-04-17 13:57:28,15.08841174,0.0001412,53.2166,169.8572,103.4866,256.6283,2.4545e-05,1.03e-06,0.0,0 STARLINK-4490,1 53409U 22097X   23107.58158485  .00000103  00000-0  24545-4 0  9996,2 53409  53.2166 169.8572 0001412 103.4866 256.6283 15.08841174 39205,6917.877,95.437,540.719,538.765,0.0
53409.0,STARLINK-4490,PAYLOAD,2023-04-18 09:02:05,15.08860903,0.0001844,53.2166,166.2879,99.8008,260.3193,-0.00023685,-4.058e-05,0.0,0 STARLINK-4490,1 53409U 22097X   23108.37645725 -.00004058  00000-0 -23685-3 0  9990,2 53409  53.2166 166.2879 0001844  99.8008 260.3193 15.08860903 39327,6917.816,95.436,540.957,538.406,0.0
53409.0,STARLINK-4490,PAYLOAD,2023-04-18 13:48:15,15.08838827,0.000164,53.2165,165.3948,120.35,239.7655,0.00017165,2.445e-05,0.0,0 STARLINK-4490,1 53409U 22097X   23108.57518434  .00002445  00000-0  17165-3 0  9990,2 53409  53.2165 165.3948 0001640 120.3500 239.7655 15.08838827 38865,6917.884,95.438,540.884,538.614,0.0
53409.0,STARLINK-4490,PAYLOAD,2023-04-19 04:06:44,15.08833984,0.0001671,53.216,162.719,112.8471,247.2698,0.00012134,1.643e-05,0.0,0 STARLINK-4490,1 53409U 22097X   23109.17135047  .00001643  00000-0  12134-3 0  9992,2 53409  53.2160 162.7190 0001671 112.8471 247.2698 15.08833984 38957,6917.899,95.438,540.92,538.608,0.0
53409.0,STARLINK-4490,PAYLOAD,2023-04-19 12:03:40,15.08839875,0.0001498,53.2179,161.2345,95.9325,264.1838,0.00010785,1.429e-05,0.0,0 STARLINK-4490,1 53409U 22097X   23109.50254876  .00001429  00000-0  10785-3 0  9993,2 53409  53.2179 161.2345 0001498  95.9325 264.1838 15.08839875 39498,6917.881,95.438,540.782,538.709,0.0
53409.0,STARLINK-4490,PAYLOAD,2023-04-19 20:00:35,15.08840527,0.0001418,53.217,159.7477,85.8073,274.3081,8.5937e-05,1.08e-05,0.0,0 STARLINK-4490,1 53409U 22097X   23109.83374970  .00001080  00000-0  85937-4 0  9992,2 53409  53.2170 159.7477 0001418  85.8073 274.3081 15.08840527 39542,6917.879,95.438,540.725,538.763,0.0
53409.0,STARLINK-4490,PAYLOAD,2023-04-20 05:32:55,15.08837924,0.0001559,53.2171,157.964,91.3067,268.8104,-4.7571e-06,-3.64e-06,0.0,0 STARLINK-4490,1 53409U 22097X   23110.23119454 -.00000364  00000-0 -47571-5 0  9991,2 53409  53.2171 157.9640 0001559  91.3067 268.8104 15.08837924 39110,6917.887,95.438,540.83,538.673,0.0
53409.0,STARLINK-4490,PAYLOAD,2023-04-20 11:54:27,15.08837536,0.0001498,53.2173,156.7746,96.0531,264.0632,-1.0738e-05,-4.59e-06,0.0,0 STARLINK-4490,1 53409U 22097X   23110.49615509 -.00000459  00000-0 -10738-4 0  9990,2 53409  53.2173 156.7746 0001498  96.0531 264.0632 15.08837536 39647,6917.888,95.438,540.789,538.717,0.0
53409.0,STARLINK-4490,PAYLOAD,2023-04-20 19:51:23,15.0883849,0.0001461,53.2172,155.2883,93.5593,266.5567,-3.1804e-05,-7.94e-06,0.0,0 STARLINK-4490,1 53409U 22097X   23110.82735527 -.00000794  00000-0 -31804-4 0  9999,2 53409  53.2172 155.2883 0001461  93.5593 266.5567 15.08838490 39691,6917.885,95.438,540.761,538.739,0.0
53409.0,STARLINK-4490,PAYLOAD,2023-04-21 13:20:38,15.08838041,0.0001339,53.2182,152.0175,92.3589,267.7557,4.8375e-05,4.82e-06,0.0,0 STARLINK-4490,1 53409U 22097X   23111.55599682  .00000482  00000-0  48375-4 0  9993,2 53409  53.2182 152.0175 0001339  92.3589 267.7557 15.08838041 39310,6917.886,95.438,540.678,538.825,0.0
53409.0,STARLINK-4490,PAYLOAD,2023-04-21 14:56:01,15.088393,0.0001406,53.2169,151.7193,93.6082,266.5071,5.7009e-05,6.19e-06,0.0,0 STARLINK-4490,1 53409U 22097X   23111.62223599  .00000619  00000-0  57009-4 0  9998,2 53409  53.2169 151.7193 0001406  93.6082 266.5071 15.08839300 39810,6917.883,95.438,540.72,538.775,0.0
53409.0,STARLINK-4490,PAYLOAD,2023-04-22 02:03:42,15.0884848,8.87e-05,53.2165,149.6371,95.6973,264.412,4.4253e-05,4.17e-06,0.0,0 STARLINK-4490,1 53409U 22097X   23112.08590766  .00000417  00000-0  44253-4 0  9995,2 53409  53.2165 149.6371 0000887  95.6973 264.4120 15.08848480 39397,6917.854,95.437,540.333,539.106,0.0
53409.0,STARLINK-4490,PAYLOAD,2023-04-22 11:36:01,15.08849769,0.0001343,53.2163,147.8523,84.3221,275.7925,0.00017729,2.536e-05,0.0,0 STARLINK-4490,1 53409U 22097X   23112.48334612  .00002536  00000-0  17729-3 0  9996,2 53409  53.2163 147.8523 0001343  84.3221 275.7925 15.08849769 39943,6917.851,95.437,540.645,538.786,0.0
53409.0,STARLINK-4490,PAYLOAD,2023-04-22 19:32:57,15.08842426,0.0001322,53.2152,146.3671,79.7321,280.382,0.00010388,1.366e-05,0.0,0 STARLINK-4490,1 53409U 22097X   23112.81455196  .00001366  00000-0  10388-3 0  9998,2 53409  53.2152 146.3671 0001322  79.7321 280.3820 15.08842426 39506,6917.873,95.437,540.653,538.823,0.0
53409.0,STARLINK-4490,PAYLOAD,2023-04-23 11:26:49,15.08835424,0.0001301,53.215,143.391,82.6626,277.4514,2.5913e-05,1.24e-06,0.0,0 STARLINK-4490,1 53409U 22097X   23113.47695977  .00000124  00000-0  25913-4 0  9996,2 53409  53.2150 143.3910 0001301  82.6626 277.4514 15.08835424 39603,6917.894,95.438,540.659,538.859,0.0
53409.0,STARLINK-4490,PAYLOAD,2023-04-24 11:17:34,15.08862098,0.0001365,53.2163,138.9306,92.168,267.9468,0.00012193,1.654e-05,0.0,0 STARLINK-4490,1 53409U 22097X   23114.47053618  .00001654  00000-0  12193-3 0  9991,2 53409  53.2163 138.9306 0001365  92.1680 267.9468 15.08862098 39757,6917.813,95.436,540.622,538.734,0.0
53409.0,STARLINK-4490,PAYLOAD,2023-04-25 12:43:46,15.08826824,0.0001478,53.2169,134.1724,118.1295,241.9847,-5.8401e-05,-1.217e-05,0.0,0 STARLINK-4490,1 53409U 22097X   23115.53040020 -.00001217  00000-0 -58401-4 0  9992,2 53409  53.2169 134.1724 0001478 118.1295 241.9847 15.08826824 40405,6917.921,95.438,540.808,538.763,0.0
53409.0,STARLINK-4490,PAYLOAD,2023-04-26 12:34:33,15.08829948,0.0001431,53.2161,129.7125,121.7984,238.3147,2.22e-05,6.5e-07,0.0,0 STARLINK-4490,1 53409U 22097X   23116.52399798  .00000065  00000-0  22200-4 0  9997,2 53409  53.2161 129.7125 0001431 121.7984 238.3147 15.08829948 40555,6917.911,95.438,540.766,538.786,0.0
53409.0,STARLINK-4490,PAYLOAD,2023-04-26 17:20:42,15.0883296,0.0001343,53.2159,128.8215,117.0123,243.1006,4.7692e-05,4.71e-06,0.0,0 STARLINK-4490,1 53409U 22097X   23116.72271652  .00000471  00000-0  47692-4 0  9990,2 53409  53.2159 128.8215 0001343 117.0123 243.1006 15.08832960 40586,6917.902,95.438,540.696,538.838,0.0
53409.0,STARLINK-4490,PAYLOAD,2023-04-27 12:25:20,15.08837791,0.0001221,53.2166,125.2526,99.0933,261.0198,0.00013617,1.88e-05,0.0,0 STARLINK-4490,1 53409U 22097X   23117.51759402  .00001880  00000-0  13617-3 0  9996,2 53409  53.2166 125.2526 0001221  99.0933 261.0198 15.08837791 40705,6917.887,95.438,540.597,538.907,0.0
53409.0,STARLINK-4490,PAYLOAD,2023-04-28 05:54:35,15.08834095,0.0001299,53.2167,121.9817,103.6492,256.4645,3.5259e-05,2.73e-06,0.0,0 STARLINK-4490,1 53409U 22097X   23118.24624230  .00000273  00000-0  35259-4 0  9999,2 53409  53.2167 121.9817 0001299 103.6492 256.4645 15.08834095 40326,6917.898,95.438,540.662,538.865,0.0
53409.0,STARLINK-4490,PAYLOAD,2023-04-28 10:40:44,15.08837107,0.0001252,53.2167,121.0898,101.4562,258.6571,5.2104e-05,5.41e-06,0.0,0 STARLINK-4490,1 53409U 22097X   23118.44496022  .00000541  00000-0  52104-4 0  9993,2 53409  53.2167 121.0898 0001252 101.4562 258.6571 15.08837107 40845,6917.889,95.438,540.62,538.888,0.0
53409.0,STARLINK-4490,PAYLOAD,2023-04-29 12:06:54,15.08842231,0.0001348,53.2171,116.3314,100.6887,259.4257,1.1445e-05,-1.06e-06,0.0,0 STARLINK-4490,1 53409U 22097X   23119.50479889 -.00000106  00000-0  11445-4 0  9994,2 53409  53.2171 116.3314 0001348 100.6887 259.4257 15.08842231 41000,6917.874,95.437,540.671,538.806,0.0
53409.0,STARLINK-4490,PAYLOAD,2023-04-30 11:57:41,15.08840257,0.0001296,53.2171,111.8699,95.0913,265.0227,3.2547e-05,2.3e-06,0.0,0 STARLINK-4490,1 53409U 22097X   23120.49839921  .00000230  00000-0  32547-4 0  9994,2 53409  53.2171 111.8699 0001296  95.0913 265.0227 15.08840257 41157,6917.88,95.438,540.641,538.848,0.0
53409.0,STARLINK-4490,PAYLOAD,2023-05-01 05:26:56,15.08833865,0.0001439,53.2179,108.5978,95.4386,264.6771,-2.7523e-05,-7.26e-06,0.0,0 STARLINK-4490,1 53409U 22097X   23121.22704754 -.00000726  00000-0 -27523-4 0  9991,2 53409  53.2179 108.5978 0001439  95.4386 264.6771 15.08833865 40778,6917.899,95.438,540.76,538.769,0.0
53409.0,STARLINK-4490,PAYLOAD,2023-05-01 08:37:43,15.08834115,0.0001435,53.218,108.003,95.4775,264.638,-2.4894e-05,-6.84e-06,0.0,0 STARLINK-4490,1 53409U 22097X   23121.35952766 -.00000684  00000-0 -24894-4 0  9994,2 53409  53.2180 108.0030 0001435  95.4775 264.6380 15.08834115 41284,6917.898,95.438,540.756,538.771,0.0
53409.0,STARLINK-4490,PAYLOAD,2023-05-02 05:17:42,15.08847404,0.0001379,53.2174,104.1384,97.925,262.1898,8.0598e-05,9.95e-06,0.0,0 STARLINK-4490,1 53409U 22097X   23122.22063478  .00000995  00000-0  80598-4 0  9990,2 53409  53.2174 104.1384 0001379  97.9250 262.1898 15.08847404 40920,6917.858,95.437,540.677,538.769,0.0
53409.0,STARLINK-4490,PAYLOAD,2023-05-02 08:28:29,15.08848164,0.000138,53.2174,103.5435,98.5847,261.5302,8.5882e-05,1.079e-05,0.0,0 STARLINK-4490,1 53409U 22097X   23122.35311349  .00001079  00000-0  85882-4 0  9992,2 53409  53.2174 103.5435 0001380  98.5847 261.5302 15.08848164 41435,6917.855,95.437,540.675,538.766,0.0
53409.0,STARLINK-4490,PAYLOAD,2023-05-03 05:08:30,15.08840166,0.0001479,53.2188,99.683,94.3627,265.7534,3.4249e-05,2.57e-06,0.0,0 STARLINK-4490,1 53409U 22097X   23123.21424079  .00000257  00000-0  34249-4 0  9991,2 53409  53.2188  99.6830 0001479  94.3627 265.7534 15.08840166 41070,6917.88,95.438,540.768,538.722,0.0
